ONEWEB-0589             
1 54655U 22166P   24222.47073576  .00000074  00000+0  14706-3 0  9994
2 54655  87.9307  18.7030 0002665  83.4766 276.6671 13.21826074 82147
ONEWEB-0590             
1 54656U 22166Q   24222.87285957 -.00000007  00000+0 -49020-4 0  9993
2 54656  87.9313  18.6322 0001845  98.6764 261.4579 13.21827115 82644
ONEWEB-0591             
1 54657U 22166R   24222.50698595  .00000005  00000+0 -18796-4 0  9993
2 54657  87.9306  18.6985 0001932  90.3642 269.7714 13.21826774 82162
ONEWEB-0592             
1 54658U 22166S   24222.51011820  .00000052  00000+0  93531-4 0  9996
2 54658  87.9303  18.6617 0002036  92.7587 267.3780 13.21820578 82042
ONEWEB-0593             
1 54659U 22166T   24222.45810527  .00000092  00000+0  19107-3 0  9991
2 54659  87.9305  18.6992 0002035  91.7652 268.3715 13.21824468 82144
ONEWEB-0594             
1 54660U 22166U   24222.47701717 -.00000098  00000+0 -26902-3 0  9994
2 54660  87.9310  18.6974 0001702  90.3886 269.7443 13.21826746 82162
ONEWEB-0595             
1 54661U 22166V   24222.45494615  .00000105  00000+0  22175-3 0  9994
2 54661  87.9305  18.6877 0001711 100.4236 259.7091 13.21827744 82135
ONEWEB-0596             
1 54662U 22166W   24222.42813680  .00000013  00000+0 -11814-5 0  9998
2 54662  87.9309  18.6994 0002124  93.9294 266.2082 13.21824124 82131
ONEWEB-0597             
1 54663U 22166X   24222.48491047  .00000003  00000+0 -25267-4 0  9999
2 54663  87.9310  18.6903 0002039  87.0108 273.1260 13.21824167 82140
ONEWEB-0600             
1 54664U 22166Y   24222.46756507  .00000047  00000+0  81128-4 0  9998
2 54664  87.9304  18.7310 0001887  89.0624 271.0726 13.21824229 82112
ONEWEB-0601             
1 54665U 22166Z   24222.45967617  .00000145  00000+0  31943-3 0  9992
2 54665  87.9311  18.7006 0002329  90.7721 269.3680 13.21827413 82300
ONEWEB-0602             
1 54666U 22166AA  24222.50068236 -.00000035  00000+0 -11584-3 0  9997
2 54666  87.9312  18.6962 0002113  86.4264 273.7111 13.21827022 82154
ONEWEB-0603             
1 54667U 22166AB  24222.50541379  .00000024  00000+0  27184-4 0  9992
2 54667  87.9313  18.6975 0002154  86.9241 273.2140 13.21827060 82086
ONEWEB-0604             
1 54668U 22166AC  24222.49279601 -.00000001  00000+0 -34196-4 0  9995
2 54668  87.9306  18.6759 0001686  84.4725 275.6601 13.21824890 82040
ONEWEB-0605             
1 54669U 22166AD  24222.48649532  .00000024  00000+0  27188-4 0  9995
2 54669  87.9305  18.7095 0002464  92.1738 267.9678 13.21826811 82110
ONEWEB-0606             
1 54670U 22166AE  24222.50856346  .00000004  00000+0 -22120-4 0  9993
2 54670  87.9311  18.6981 0001681  96.3089 263.8236 13.21826803 82179
ONEWEB-0607             
1 54671U 22166AF  24222.47546073  .00000055  00000+0  10266-3 0  9995
2 54671  87.9306  18.6806 0002006  87.8535 272.2828 13.21825588 82140
ONEWEB-0608             
1 54672U 22166AG  24222.48175706  .00000064  00000+0  12451-3 0  9996
2 54672  87.9313  18.7039 0002388  89.4527 270.6881 13.21826795 82153
ONEWEB-0610             
1 54673U 22166AH  24222.46283335  .00000063  00000+0  11988-3 0  9996
2 54673  87.9308  18.7003 0002289  91.0441 269.0955 13.21827454 82059
ONEWEB-0611             
1 54674U 22166AJ  24222.45652363  .00000072  00000+0  14237-3 0  9997
2 54674  87.9306  18.6999 0001412  95.8386 264.2909 13.21826904 82042
ONEWEB-0612             
1 54675U 22166AK  24222.46914250  .00000107  00000+0  22755-3 0  9998
2 54675  87.9305  18.6797 0002123  91.7391 268.3986 13.21827260 82034
ONEWEB-0615             
1 54676U 22166AL  24222.45021332  .00000056  00000+0  10345-3 0  9993
2 54676  87.9304  18.7080 0001888  84.3062 275.8287 13.21823888 82040
ONEWEB-0655             
1 54677U 22166AM  24222.42342218 -.00000264  00000+0 -66969-3 0  9996
2 54677  87.9292  18.7144 0002157  69.7986 290.3380 13.21827363 82037
ONEWEB-0659             
1 54678U 22166AN  24222.51645351  .00000101  00000+0  21371-3 0  9997
2 54678  87.9305  18.7031 0001712  97.3519 262.7810 13.21824764 82137
ONEWEB-0685             
1 54679U 22166AP  24222.51803087  .00000097  00000+0  20285-3 0  9997
2 54679  87.9306  18.6930 0001944  84.5248 275.6107 13.21824682 82029
ONEWEB-0712             
1 54680U 22166AQ  24222.47828966  .00000184  00000+0  44501-3 0  9991
2 54680  87.9140   3.5095 0001345  96.2975 263.8310 13.17106431 83019
ONEWEB-0714             
1 54681U 22166AR  24222.44864380  .00000055  00000+0  10161-3 0  9991
2 54681  87.9307  18.6939 0001948  84.7870 275.3486 13.21826181 82134
ONEWEB-0532             
1 55140U 23004A   24222.51764799  .00000109  00000+0  24686-3 0  9992
2 55140  87.9189 140.6163 0002399  87.1011 273.0395 13.17650448 78475
ONEWEB-0533             
1 55141U 23004B   24222.77632680 -.00000303  00000+0 -87876-3 0  9992
2 55141  87.8946 125.3567 0001976  73.2580 286.8765 13.12443835 79335
ONEWEB-0541             
1 55142U 23004C   24222.58253919  .00000560  00000+0  15444-2 0  9990
2 55142  87.8997 155.7528 0002076  78.4537 281.6824 13.11417185 77264
ONEWEB-0543             
1 55143U 23004D   24222.42173640  .00000047  00000+0  87213-4 0  9991
2 55143  87.9119 110.2782 0001679  67.6876 292.4434 13.18687382 80507
ONEWEB-0544             
1 55144U 23004E   24222.41540797  .00000052  00000+0  99060-4 0  9991
2 55144  87.9121 110.2651 0001680  79.3838 280.7483 13.18684066 80506
ONEWEB-0560             
1 55145U 23004F   24222.40909121  .00000024  00000+0  27888-4 0  9999
2 55145  87.9125 110.2203 0001461  76.3430 283.7865 13.18685514 80513
ONEWEB-0565             
1 55146U 23004G   24222.40275780  .00000085  00000+0  18354-3 0  9991
2 55146  87.9120 110.2971 0001671  99.7164 260.4157 13.18687944 80501
ONEWEB-0567             
1 55147U 23004H   24222.62406939  .00000056  00000+0  10965-3 0  9996
2 55147  87.9119 110.2070 0001483  90.4660 269.6642 13.18684902 80534
ONEWEB-0569             
1 55148U 23004J   24222.55013346  .00000292  00000+0  76562-3 0  9992
2 55148  87.8891  94.8702 0000838 109.4858 250.6361 13.13470309 81351
ONEWEB-0570             
1 55149U 23004K   24222.61142223  .00000002  00000+0 -28971-4 0  9999
2 55149  87.9122 110.2074 0002371  93.2709 266.8694 13.18687641 80524
ONEWEB-0571             
1 55150U 23004L   24222.45335118  .00000028  00000+0  39233-4 0  9990
2 55150  87.9123 110.2453 0001609 113.3493 246.7809 13.18685917 80513
ONEWEB-0572             
1 55151U 23004M   24222.47241009  .00000102  00000+0  22913-3 0  9997
2 55151  87.9190 140.6325 0002024  82.7138 277.4223 13.17648982 78361
ONEWEB-0573             
1 55152U 23004N   24222.44702241 -.00001302  00000+0 -33352-2 0  9998
2 55152  87.9118 110.2650 0001899 107.8691 252.2648 13.18694806 80506
ONEWEB-0588             
1 55153U 23004P   24222.44072335  .00000324  00000+0  78963-3 0  9992
2 55153  87.9127 110.2355 0002200  92.2239 267.9145 13.18683583 80506
ONEWEB-0598             
1 55154U 23004Q   24222.56050483  .00000245  00000+0  65676-3 0  9995
2 55154  87.9000 155.7965 0001598  97.3129 262.8180 13.11419575 77219
ONEWEB-0599             
1 55155U 23004R   24222.50955388  .00000047  00000+0  87561-4 0  9996
2 55155  87.9193 140.6122 0001803  76.4993 283.6340 13.17651954 78379
ONEWEB-0614             
1 55156U 23004S   24222.86058056 -.00003488  00000+0 -98793-2 0  9993
2 55156  87.9001 155.7417 0002487  75.3924 284.7479 13.11435067 77219
ONEWEB-0616             
1 55157U 23004T   24222.47563659  .00000062  00000+0  12681-3 0  9997
2 55157  87.9191 140.6242 0001556  38.7696 321.3547 13.17650647 78588
ONEWEB-0617             
1 55158U 23004U   24222.54352392 -.00000380  00000+0 -11086-2 0  9998
2 55158  87.8995 155.7973 0002360  85.5651 274.5747 13.11415877 77176
ONEWEB-0618             
1 55159U 23004V   24222.54836321  .00002426  00000+0  99224-3 0  9990
2 55159  86.9024  74.4020 0015210 108.6517 251.6328 14.26838753 82958
ONEWEB-0619             
1 55160U 23004W   24222.50795218  .00000012  00000+0 -27243-5 0  9991
2 55160  87.9189 140.5950 0002140  61.4724 298.6623 13.17650464 78486
ONEWEB-0620             
1 55161U 23004X   24222.53844551 -.00000566  00000+0 -16335-2 0  9992
2 55161  87.8997 155.8099 0002262  89.9419 270.1968 13.11416389 77146
ONEWEB-0621             
1 55162U 23004Y   24222.56557724  .00000129  00000+0  32916-3 0  9996
2 55162  87.8994 155.7723 0002317  72.6443 287.4938 13.11418290 77123
ONEWEB-0622             
1 55163U 23004Z   24222.57067462  .00000553  00000+0  15240-2 0  9994
2 55163  87.8995 155.7881 0002815  88.8012 271.3438 13.11417532 77118
ONEWEB-0623             
1 55164U 23004AA  24222.50310652 -.00000038  00000+0 -12990-3 0  9990
2 55164  87.9190 140.6498 0002865  81.7427 278.4030 13.17650192 78474
ONEWEB-0624             
1 55165U 23004AB  24222.43746001  .00000018  00000+0  15608-4 0  9990
2 55165  87.8946 125.4321 0002098  77.3394 282.7968 13.12440994 79281
ONEWEB-0625             
1 55166U 23004AC  24222.49179895  .00000091  00000+0  20183-3 0  9992
2 55166  87.9191 140.6504 0001943  68.5901 291.5438 13.17648000 78463
ONEWEB-0626             
1 55167U 23004AD  24222.48210269  .00000043  00000+0  77522-4 0  9990
2 55167  87.9191 140.6524 0001822  91.8010 268.3330 13.17648969 78469
ONEWEB-0627             
1 55168U 23004AE  24222.47079734  .00000099  00000+0  22162-3 0  9990
2 55168  87.9192 140.6563 0002587  84.6596 275.4830 13.17648911 78463
ONEWEB-0628             
1 55169U 23004AF  24222.49424340  .00000514  00000+0  13939-2 0  9993
2 55169  87.8943 125.4075 0002765  76.4127 283.7310 13.12442045 79273
ONEWEB-0629             
1 55170U 23004AG  24222.53444025  .00000048  00000+0  87214-4 0  9993
2 55170  87.9186 140.6283 0002311  71.5532 288.5851 13.19270149 78473
ONEWEB-0631             
1 55171U 23004AH  24222.73788363  .00000068  00000+0  14046-3 0  9996
2 55171  87.9130 110.0850 0002025  98.1332 262.0030 13.18688298 80521
